{
    "links": {
        "self": "http://www.neowsapp.com/rest/v1/neo/54057205?api_key=iIulBulltgU6a56xZRHN4H3l9WmuAYTsLGpBGhQ2"
    },
    "id": "54057205",
    "neo_reference_id": "54057205",
    "name": "(2020 TJ4)",
    "designation": "2020 TJ4",
    "nasa_jpl_url": "http://ssd.jpl.nasa.gov/sbdb.cgi?sstr=54057205",
    "absolute_magnitude_h": 23.914,
    "estimated_diameter": {
        "kilometers": {
            "estimated_diameter_min": 0.0438283354,
            "estimated_diameter_max": 0.0980031373
        },
        "meters": {
            "estimated_diameter_min": 43.8283354143,
            "estimated_diameter_max": 98.0031373271
        },
        "miles": {
            "estimated_diameter_min": 0.0272336566,
            "estimated_diameter_max": 0.0608963074
        },
        "feet": {
            "estimated_diameter_min": 143.7937559608,
            "estimated_diameter_max": 321.5326130684
        }
    },
    "is_potentially_hazardous_asteroid": false,
    "close_approach_data": [
        {
            "close_approach_date": "2020-10-17",
            "close_approach_date_full": "2020-Oct-17 19:22",
            "epoch_date_close_approach": 1602962520000,
            "relative_velocity": {
                "kilometers_per_second": "4.9753590014",
                "kilometers_per_hour": "17911.2924050572",
                "miles_per_hour": "11129.3805502424"
            },
            "miss_distance": {
                "astronomical": "0.1808782465",
                "lunar": "70.3616378885",
                "kilometers": "27059000.405734955",
                "miles": "16813683.191274179"
            },
            "orbiting_body": "Earth"
        },
        {
            "close_approach_date": "2025-01-08",
            "close_approach_date_full": "2025-Jan-08 09:49",
            "epoch_date_close_approach": 1736329740000,
            "relative_velocity": {
                "kilometers_per_second": "10.4014903632",
                "kilometers_per_hour": "37445.3653075967",
                "miles_per_hour": "23267.0937934897"
            },
            "miss_distance": {
                "astronomical": "0.0674066814",
                "lunar": "26.2211990646",
                "kilometers": "10083895.961208618",
                "miles": "6265842.3993222084"
            },
            "orbiting_body": "Mars"
        }
    ],
    "orbital_data": {
        "orbit_id": "4",
        "orbit_determination_date": "2020-11-08 05:44:55",
        "first_observation_date": "2020-10-12",
        "last_observation_date": "2020-11-07",
        "data_arc_in_days": 26,
        "observations_used": 40,
        "orbit_uncertainty": "7",
        "minimum_orbit_intersection": ".180698",
        "jupiter_tisserand_invariant": "3.256",
        "epoch_osculation": "2459000.5",
        "eccentricity": ".5339707333474302",
        "semi_major_axis": "2.486543485866435",
        "inclination": "5.384463853105048",
        "ascending_node_longitude": "340.3321595168316",
        "orbital_period": "1432.16321610023",
        "perihelion_distance": "1.158802037218059",
        "perihelion_argument": "51.7065011506154",
        "aphelion_distance": "3.81428493451481",
        "perihelion_time": "2459146.710954902917",
        "mean_anomaly": "323.2472450253418",
        "mean_motion": ".2513679976925237",
        "equinox": "J2000",
        "orbit_class": {
            "orbit_class_type": "AMO",
            "orbit_class_description": "Near-Earth asteroid orbits similar to that of 1221 Amor",
            "orbit_class_range": "1.017 AU < q (perihelion) < 1.3 AU"
        }
    },
    "is_sentry_object": false
}